0 COSMOS 2251 DEB
1 34976U 93036AFF 13281.18657672  .00002601  00000-0  68240-3 0  7144
2 34976 074.0691 093.0775 0075676 219.3254 259.0831 14.48025019235491
0 COSMOS 2251 DEB
1 34976U 93036AFF 13282.48247536  .00003087  00000-0  80819-3 0  7158
2 34976 074.0689 090.6556 0075619 216.6346 174.4055 14.48041908235681
0 COSMOS 2251 DEB
1 34976U 93036AFF 13283.80099657  .00004016  00000-0  10489-2 0  7163
2 34976 074.0692 088.1933 0075671 213.8372 207.7947 14.48046295235877
0 COSMOS 2251 DEB
1 34976U 93036AFF 13286.49449141  .00003749  00000-0  97936-3 0  7185
2 34976 074.0690 083.1605 0075601 208.1686 208.9170 14.48062723236263
0 COSMOS 2251 DEB
1 34976U 93036AFF 13287.80908688  .00005920  00000-0  15416-2 0  7193
2 34976 074.0691 080.7048 0075504 205.4165 221.9260 14.48072776236457
0 COSMOS 2251 DEB
1 34976U 93036AFF 13288.85655277  .00005522  00000-0  14382-2 0  7203
2 34976 074.0693 078.7478 0075466 203.2079 282.4365 14.48083869236611
0 COSMOS 2251 DEB
1 34976U 93036AFF 13290.09928476  .00005494  00000-0  14307-2 0  7212
2 34976 074.0698 076.4256 0075377 200.6231 280.8960 14.48093909236784
0 COSMOS 2251 DEB
1 34976U 93036AFF 13291.47049514  .00005129  00000-0  13361-2 0  7227
2 34976 074.0705 073.8636 0075265 197.7266 229.2228 14.48107363236982
0 COSMOS 2251 DEB
1 34976U 93036AFF 13292.71269824  .00005276  00000-0  13737-2 0  7234
2 34976 074.0710 071.5428 0075214 195.1199 225.0595 14.48118664237161
0 COSMOS 2251 DEB
1 34976U 93036AFF 13293.83679834  .00006059  00000-0  15761-2 0  7244
2 34976 074.0711 069.4424 0075153 192.7417 325.2659 14.48128309237332
0 COSMOS 2251 DEB
1 34976U 93036AFF 13295.07363777  .00006046  00000-0  15724-2 0  7254
2 34976 074.0711 067.1314 0075074 190.1416 293.2406 14.48140485237511
